STARLINK-3969           
1 52551U 22051U   26068.54080794  .00001886  00000+0  13659-3 0  9996
2 52551  53.2167 129.7900 0001055  99.3768 260.7343 15.08827185211425
PRSC-S1                 
1 65055U 25164A   26068.60758212  .00007316  00000+0  46631-3 0  9991
2 65055  41.1290 129.3637 0004466 348.3012  11.7698 15.08919510 33403
